[
  {
    "OBJECT_NAME": "STARLINK-6029",
    "OBJECT_ID": "23078AN",
    "EPOCH": "2025-11-11T06:37:35.071968",
    "MEAN_MOTION": 14.98335216,
    "ECCENTRICITY": 0.0002892,
    "INCLINATION": 69.9987,
    "RA_OF_ASC_NODE": 282.9896,
    "ARG_OF_PERICENTER": 269.0715,
    "MEAN_ANOMALY": 91.0113,
    "EPHEMERIS_TYPE": 0,
    "CLASSIFICATION_TYPE": "U",
    "NORAD_CAT_ID": 56803,
    "ELEMENT_SET_NO": 999,
    "REV_AT_EPOCH": 13494,
    "BSTAR": 0.0,
    "MEAN_MOTION_DOT": -1.653e-05,
    "MEAN_MOTION_DDOT": 0.0,
    "TLE_LINE1": "1 56803U 23078AN  25315.27610037 -.00001653  00000+0 -13074-3 0  9998",
    "TLE_LINE2": "2 56803  69.9987 282.9896 0002892 269.0715  91.0113 14.98335216134945",
    "COMMENT": "Grouped by shell and plane from TLE"
  },
  {
    "OBJECT_NAME": "STARLINK-6040",
    "OBJECT_ID": "23078AU",
    "EPOCH": "2025-11-11T06:07:32.460384",
    "MEAN_MOTION": 14.98332805,
    "ECCENTRICITY": 0.0001915,
    "INCLINATION": 69.9981,
    "RA_OF_ASC_NODE": 282.9174,
    "ARG_OF_PERICENTER": 257.4182,
    "MEAN_ANOMALY": 102.6763,
    "EPHEMERIS_TYPE": 0,
    "CLASSIFICATION_TYPE": "U",
    "NORAD_CAT_ID": 56809,
    "ELEMENT_SET_NO": 999,
    "REV_AT_EPOCH": 13494,
    "BSTAR": 0.00010952000000000001,
    "MEAN_MOTION_DOT": 1.214e-05,
    "MEAN_MOTION_DDOT": 0.0,
    "TLE_LINE1": "1 56809U 23078AU  25315.25523681  .00001214  00000+0  10952-3 0  9993",
    "TLE_LINE2": "2 56809  69.9981 282.9174 0001915 257.4182 102.6763 14.98332805134949",
    "COMMENT": "Grouped by shell and plane from TLE"
  },
  {
    "OBJECT_NAME": "STARLINK-6031",
    "OBJECT_ID": "23078AV",
    "EPOCH": "2025-11-11T06:31:33.240000",
    "MEAN_MOTION": 14.98335556,
    "ECCENTRICITY": 0.0003133,
    "INCLINATION": 69.9986,
    "RA_OF_ASC_NODE": 282.9747,
    "ARG_OF_PERICENTER": 270.7204,
    "MEAN_ANOMALY": 89.3596,
    "EPHEMERIS_TYPE": 0,
    "CLASSIFICATION_TYPE": "U",
    "NORAD_CAT_ID": 56810,
    "ELEMENT_SET_NO": 999,
    "REV_AT_EPOCH": 13494,
    "BSTAR": 0.00010308000000000001,
    "MEAN_MOTION_DOT": 1.137e-05,
    "MEAN_MOTION_DDOT": 0.0,
    "TLE_LINE1": "1 56810U 23078AV  25315.27191250  .00001137  00000+0  10308-3 0  9999",
    "TLE_LINE2": "2 56810  69.9986 282.9747 0003133 270.7204  89.3596 14.98335556134940",
    "COMMENT": "Grouped by shell and plane from TLE"
  },
  {
    "OBJECT_NAME": "STARLINK-6056",
    "OBJECT_ID": "23078AY",
    "EPOCH": "2025-11-11T06:01:45.620544",
    "MEAN_MOTION": 14.98327912,
    "ECCENTRICITY": 0.0003211,
    "INCLINATION": 69.9993,
    "RA_OF_ASC_NODE": 282.9039,
    "ARG_OF_PERICENTER": 259.0844,
    "MEAN_ANOMALY": 100.9954,
    "EPHEMERIS_TYPE": 0,
    "CLASSIFICATION_TYPE": "U",
    "NORAD_CAT_ID": 56813,
    "ELEMENT_SET_NO": 999,
    "REV_AT_EPOCH": 13494,
    "BSTAR": 5.3104e-05,
    "MEAN_MOTION_DOT": 5.41e-06,
    "MEAN_MOTION_DDOT": 0.0,
    "TLE_LINE1": "1 56813U 23078AY  25315.25122246  .00000541  00000+0  53104-4 0  9999",
    "TLE_LINE2": "2 56813  69.9993 282.9039 0003211 259.0844 100.9954 14.98327912134947",
    "COMMENT": "Grouped by shell and plane from TLE"
  },
  {
    "OBJECT_NAME": "STARLINK-6059",
    "OBJECT_ID": "23078AZ",
    "EPOCH": "2025-11-11T06:13:30.147744",
    "MEAN_MOTION": 14.98352032,
    "ECCENTRICITY": 0.0003048,
    "INCLINATION": 69.9983,
    "RA_OF_ASC_NODE": 282.9315,
    "ARG_OF_PERICENTER": 267.2227,
    "MEAN_ANOMALY": 92.8583,
    "EPHEMERIS_TYPE": 0,
    "CLASSIFICATION_TYPE": "U",
    "NORAD_CAT_ID": 56814,
    "ELEMENT_SET_NO": 999,
    "REV_AT_EPOCH": 13494,
    "BSTAR": 0.00017261000000000002,
    "MEAN_MOTION_DOT": 1.968e-05,
    "MEAN_MOTION_DDOT": 0.0,
    "TLE_LINE1": "1 56814U 23078AZ  25315.25937671  .00001968  00000+0  17261-3 0  9993",
    "TLE_LINE2": "2 56814  69.9983 282.9315 0003048 267.2227  92.8583 14.98352032134946",
    "COMMENT": "Grouped by shell and plane from TLE"
  },
  {
    "OBJECT_NAME": "STARLINK-5982",
    "OBJECT_ID": "23078BC",
    "EPOCH": "2025-11-11T06:25:33.096288",
    "MEAN_MOTION": 14.98333428,
    "ECCENTRICITY": 0.0002838,
    "INCLINATION": 69.9989,
    "RA_OF_ASC_NODE": 282.9599,
    "ARG_OF_PERICENTER": 269.1113,
    "MEAN_ANOMALY": 90.9721,
    "EPHEMERIS_TYPE": 0,
    "CLASSIFICATION_TYPE": "U",
    "NORAD_CAT_ID": 56817,
    "ELEMENT_SET_NO": 999,
    "REV_AT_EPOCH": 13494,
    "BSTAR": 0.0,
    "MEAN_MOTION_DOT": -3.43e-06,
    "MEAN_MOTION_DDOT": 0.0,
    "TLE_LINE1": "1 56817U 23078BC  25315.26774417 -.00000343  00000+0 -20986-4 0  9991",
    "TLE_LINE2": "2 56817  69.9989 282.9599 0002838 269.1113  90.9721 14.98333428134941",
    "COMMENT": "Grouped by shell and plane from TLE"
  },
  {
    "OBJECT_NAME": "STARLINK-6028",
    "OBJECT_ID": "23078BD",
    "EPOCH": "2025-11-11T06:01:31.152000",
    "MEAN_MOTION": 14.98328421,
    "ECCENTRICITY": 0.000293,
    "INCLINATION": 69.9986,
    "RA_OF_ASC_NODE": 282.9013,
    "ARG_OF_PERICENTER": 268.91,
    "MEAN_ANOMALY": 91.1723,
    "EPHEMERIS_TYPE": 0,
    "CLASSIFICATION_TYPE": "U",
    "NORAD_CAT_ID": 56818,
    "ELEMENT_SET_NO": 999,
    "REV_AT_EPOCH": 13563,
    "BSTAR": 0.00017044,
    "MEAN_MOTION_DOT": 1.941e-05,
    "MEAN_MOTION_DDOT": 0.0,
    "TLE_LINE1": "1 56818U 23078BD  25315.25105500  .00001941  00000+0  17044-3 0  9995",
    "TLE_LINE2": "2 56818  69.9986 282.9013 0002930 268.9100  91.1723 14.98328421135635",
    "COMMENT": "Grouped by shell and plane from TLE"
  },
  {
    "OBJECT_NAME": "STARLINK-30169",
    "OBJECT_ID": "23113E",
    "EPOCH": "2025-11-11T05:04:03.517248",
    "MEAN_MOTION": 15.02534373,
    "ECCENTRICITY": 0.0001264,
    "INCLINATION": 43.0008,
    "RA_OF_ASC_NODE": 288.7656,
    "ARG_OF_PERICENTER": 269.4689,
    "MEAN_ANOMALY": 90.6008,
    "EPHEMERIS_TYPE": 0,
    "CLASSIFICATION_TYPE": "U",
    "NORAD_CAT_ID": 57499,
    "ELEMENT_SET_NO": 999,
    "REV_AT_EPOCH": 12582,
    "BSTAR": 4.5523000000000004e-05,
    "MEAN_MOTION_DOT": 4.11e-06,
    "MEAN_MOTION_DDOT": 0.0,
    "TLE_LINE1": "1 57499U 23113E   25315.21115182  .00000411  00000+0  45523-4 0  9999",
    "TLE_LINE2": "2 57499  43.0008 288.7656 0001264 269.4689  90.6008 15.02534373125824",
    "COMMENT": "Grouped by shell and plane from TLE"
  },
  {
    "OBJECT_NAME": "STARLINK-30227",
    "OBJECT_ID": "23113L",
    "EPOCH": "2025-11-11T00:02:23.713440",
    "MEAN_MOTION": 15.02554946,
    "ECCENTRICITY": 9.95e-05,
    "INCLINATION": 43.0037,
    "RA_OF_ASC_NODE": 289.4722,
    "ARG_OF_PERICENTER": 236.8696,
    "MEAN_ANOMALY": 123.2051,
    "EPHEMERIS_TYPE": 0,
    "CLASSIFICATION_TYPE": "U",
    "NORAD_CAT_ID": 57505,
    "ELEMENT_SET_NO": 999,
    "REV_AT_EPOCH": 12595,
    "BSTAR": 0.00020203,
    "MEAN_MOTION_DOT": 2.528e-05,
    "MEAN_MOTION_DDOT": 0.0,
    "TLE_LINE1": "1 57505U 23113L   25315.00166335  .00002528  00000+0  20203-3 0  9998",
    "TLE_LINE2": "2 57505  43.0037 289.4722 0000995 236.8696 123.2051 15.02554946125955",
    "COMMENT": "Grouped by shell and plane from TLE"
  },
  {
    "OBJECT_NAME": "STARLINK-30259",
    "OBJECT_ID": "23115A",
    "EPOCH": "2025-11-11T05:51:56.215296",
    "MEAN_MOTION": 15.02542023,
    "ECCENTRICITY": 0.0001265,
    "INCLINATION": 43.003,
    "RA_OF_ASC_NODE": 288.6259,
    "ARG_OF_PERICENTER": 261.7343,
    "MEAN_ANOMALY": 98.3356,
    "EPHEMERIS_TYPE": 0,
    "CLASSIFICATION_TYPE": "U",
    "NORAD_CAT_ID": 57521,
    "ELEMENT_SET_NO": 999,
    "REV_AT_EPOCH": 12571,
    "BSTAR": 2.3140000000000002e-05,
    "MEAN_MOTION_DOT": 1.09e-06,
    "MEAN_MOTION_DDOT": 0.0,
    "TLE_LINE1": "1 57521U 23115A   25315.24440064  .00000109  00000+0  23140-4 0  9995",
    "TLE_LINE2": "2 57521  43.0030 288.6259 0001265 261.7343  98.3356 15.02542023125716",
    "COMMENT": "Grouped by shell and plane from TLE"
  },
  {
    "OBJECT_NAME": "STARLINK-30256",
    "OBJECT_ID": "23115B",
    "EPOCH": "2025-11-11T05:47:08.340864",
    "MEAN_MOTION": 15.0253404,
    "ECCENTRICITY": 0.0001293,
    "INCLINATION": 43.0059,
    "RA_OF_ASC_NODE": 288.6014,
    "ARG_OF_PERICENTER": 272.4,
    "MEAN_ANOMALY": 87.6694,
    "EPHEMERIS_TYPE": 0,
    "CLASSIFICATION_TYPE": "U",
    "NORAD_CAT_ID": 57522,
    "ELEMENT_SET_NO": 999,
    "REV_AT_EPOCH": 12449,
    "BSTAR": 5.8138000000000005e-05,
    "MEAN_MOTION_DOT": 5.82e-06,
    "MEAN_MOTION_DDOT": 0.0,
    "TLE_LINE1": "1 57522U 23115B   25315.24106876  .00000582  00000+0  58138-4 0  9996",
    "TLE_LINE2": "2 57522  43.0059 288.6014 0001293 272.4000  87.6694 15.02534040124497",
    "COMMENT": "Grouped by shell and plane from TLE"
  },
  {
    "OBJECT_NAME": "STARLINK-30261",
    "OBJECT_ID": "23115C",
    "EPOCH": "2025-11-11T07:18:05.565312",
    "MEAN_MOTION": 15.02522522,
    "ECCENTRICITY": 0.0001438,
    "INCLINATION": 43.005,
    "RA_OF_ASC_NODE": 288.2155,
    "ARG_OF_PERICENTER": 273.3235,
    "MEAN_ANOMALY": 86.7443,
    "EPHEMERIS_TYPE": 0,
    "CLASSIFICATION_TYPE": "U",
    "NORAD_CAT_ID": 57523,
    "ELEMENT_SET_NO": 999,
    "REV_AT_EPOCH": 12450,
    "BSTAR": 0.0,
    "MEAN_MOTION_DOT": -8.6e-06,
    "MEAN_MOTION_DDOT": 0.0,
    "TLE_LINE1": "1 57523U 23115C   25315.30423108 -.00000860  00000+0 -48614-4 0  9993",
    "TLE_LINE2": "2 57523  43.0050 288.2155 0001438 273.3235  86.7443 15.02522522124508",
    "COMMENT": "Grouped by shell and plane from TLE"
  },
  {
    "OBJECT_NAME": "STARLINK-30260",
    "OBJECT_ID": "23115D",
    "EPOCH": "2025-11-11T07:13:16.687776",
    "MEAN_MOTION": 15.02534246,
    "ECCENTRICITY": 0.0001148,
    "INCLINATION": 43.0041,
    "RA_OF_ASC_NODE": 288.21,
    "ARG_OF_PERICENTER": 270.608,
    "MEAN_ANOMALY": 89.463,
    "EPHEMERIS_TYPE": 0,
    "CLASSIFICATION_TYPE": "U",
    "NORAD_CAT_ID": 57524,
    "ELEMENT_SET_NO": 999,
    "REV_AT_EPOCH": 12450,
    "BSTAR": 8.7278e-05,
    "MEAN_MOTION_DOT": 9.75e-06,
    "MEAN_MOTION_DDOT": 0.0,
    "TLE_LINE1": "1 57524U 23115D   25315.30088759  .00000975  00000+0  87278-4 0  9997",
    "TLE_LINE2": "2 57524  43.0041 288.2100 0001148 270.6080  89.4630 15.02534246124509",
    "COMMENT": "Grouped by shell and plane from TLE"
  }
]